[{"OBJECT_NAME":"LUMELITE-4","OBJECT_ID":"2023-057B","EPOCH":"2026-03-09T12:04:50.773152","MEAN_MOTION":15.19877406,"ECCENTRICITY":0.00040087,"INCLINATION":9.9925,"RA_OF_ASC_NODE":94.5306,"ARG_OF_PERICENTER":70.4016,"MEAN_ANOMALY":289.6633,"EPHEMERIS_TYPE":0,"CLASSIFICATION_TYPE":"U","NORAD_CAT_ID":56309,"ELEMENT_SET_NO":999,"REV_AT_EPOCH":15885,"BSTAR":0.00062211184,"MEAN_MOTION_DOT":0.00014689,"MEAN_MOTION_DDOT":0},{"OBJECT_NAME":"LUNA-1","OBJECT_ID":"2025-276DR","EPOCH":"2026-03-09T16:52:45.597792","MEAN_MOTION":15.20784486,"ECCENTRICITY":0.00020745,"INCLINATION":97.4326,"RA_OF_ASC_NODE":144.29,"ARG_OF_PERICENTER":174.5439,"MEAN_ANOMALY":185.582,"EPHEMERIS_TYPE":0,"CLASSIFICATION_TYPE":"U","NORAD_CAT_ID":66777,"ELEMENT_SET_NO":999,"REV_AT_EPOCH":1533,"BSTAR":0.00042338714,"MEAN_MOTION_DOT":9.266e-5,"MEAN_MOTION_DDOT":0}]
